TIANQI-3G_L_00009001-01
1 10000U 26610SO  26075.70052083  .00000000  00000+0  00000-0 0  9990
2 10000  98.3000   0.0000 0000000   0.0000   0.0000 14.48668702    10
TIANQI-3G_L_00009001-02
1 10001U 25128LT  26075.70052083  .00000000  00000+0  00000-0 0  9994
2 10001  98.3000   0.0000 0000000   0.0000 120.0000 14.48668702    14
TIANQI-3G_L_00009001-03
1 10002U 22249NA  26075.70052083  .00000000  00000+0  00000-0 0  9996
2 10002  98.3000   0.0000 0000000   0.0000 240.0000 14.48668702    18
TIANQI-3G_L_00009002-01
1 10003U 25323RM  26075.70052083  .00000000  00000+0  00000-0 0  9993
2 10003  98.3000  18.0000 0000000   0.0000  24.0000 14.48668702    18
TIANQI-3G_L_00009002-02
1 10004U 25277PN  26075.70052083  .00000000  00000+0  00000-0 0  9992
2 10004  98.3000  18.0000 0000000   0.0000 144.0000 14.48668702    12
TIANQI-3G_L_00009002-03
1 10005U 22913RH  26075.70052083  .00000000  00000+0  00000-0 0  9997
2 10005  98.3000  18.0000 0000000   0.0000 264.0000 14.48668702    16
TIANQI-3G_L_00009003-01
1 10006U 25115WP  26075.70052083  .00000000  00000+0  00000-0 0  9995
2 10006  98.3000  36.0000 0000000   0.0000  48.0000 14.48668702    17
TIANQI-3G_L_00009003-02
1 10007U 22350CW  26075.70052083  .00000000  00000+0  00000-0 0  9994
2 10007  98.3000  36.0000 0000000   0.0000 168.0000 14.48668702    11
TIANQI-3G_L_00009003-03
1 10008U 23113JC  26075.70052083  .00000000  00000+0  00000-0 0  9993
2 10008  98.3000  36.0000 0000000   0.0000 288.0000 14.48668702    15
TIANQI-3G_L_00009004-01
1 10009U 22853JN  26075.70052083  .00000000  00000+0  00000-0 0  9994
2 10009  98.3000  54.0000 0000000   0.0000  72.0000 14.48668702    17
TIANQI-3G_L_00009004-02
1 10010U 25623GC  26075.70052083  .00000000  00000+0  00000-0 0  9994
2 10010  98.3000  54.0000 0000000   0.0000 192.0000 14.48668702    12
TIANQI-3G_L_00009004-03
1 10011U 24875MO  26075.70052083  .00000000  00000+0  00000-0 0  9993
2 10011  98.3000  54.0000 0000000   0.0000 312.0000 14.48668702    17
TIANQI-3G_L_00009005-01
1 10012U 24933GJ  26075.70052083  .00000000  00000+0  00000-0 0  9999
2 10012  98.3000  72.0000 0000000   0.0000  96.0000 14.48668702    17
TIANQI-3G_L_00009005-02
1 10013U 24339XW  26075.70052083  .00000000  00000+0  00000-0 0  9990
2 10013  98.3000  72.0000 0000000   0.0000 216.0000 14.48668702    12
TIANQI-3G_L_00009005-03
1 10014U 22617QO  26075.70052083  .00000000  00000+0  00000-0 0  9998
2 10014  98.3000  72.0000 0000000   0.0000 336.0000 14.48668702    16
TIANQI-3G_L_00009006-01
1 10015U 25633RE  26075.70052083  .00000000  00000+0  00000-0 0  9990
2 10015  98.3000  90.0000 0000000   0.0000 120.0000 14.48668702    18
TIANQI-3G_L_00009006-02
1 10016U 24501JC  26075.70052083  .00000000  00000+0  00000-0 0  9994
2 10016  98.3000  90.0000 0000000   0.0000 240.0000 14.48668702    12
TIANQI-3G_L_00009006-03
1 10017U 25622RX  26075.70052083  .00000000  00000+0  00000-0 0  9990
2 10017  98.3000  90.0000 0000000   0.0000   0.0000 14.48668702    17
TIANQI-3G_L_00009007-01
1 10018U 24956PX  26075.70052083  .00000000  00000+0  00000-0 0  9990
2 10018  98.3000 108.0000 0000000   0.0000 144.0000 14.48668702    17
TIANQI-3G_L_00009007-02
1 10019U 26823RU  26075.70052083  .00000000  00000+0  00000-0 0  9996
2 10019  98.3000 108.0000 0000000   0.0000 264.0000 14.48668702    11
TIANQI-3G_L_00009007-03
1 10020U 26324BQ  26075.70052083  .00000000  00000+0  00000-0 0  9994
2 10020  98.3000 108.0000 0000000   0.0000  24.0000 14.48668702    17
TIANQI-3G_L_00009008-01
1 10021U 22584ED  26075.70052083  .00000000  00000+0  00000-0 0  9999
2 10021  98.3000 126.0000 0000000   0.0000 168.0000 14.48668702    17
TIANQI-3G_L_00009008-02
1 10022U 26464TF  26075.70052083  .00000000  00000+0  00000-0 0  9991
2 10022  98.3000 126.0000 0000000   0.0000 288.0000 14.48668702    11
TIANQI-3G_L_00009008-03
1 10023U 22003UI  26075.70052083  .00000000  00000+0  00000-0 0  9997
2 10023  98.3000 126.0000 0000000   0.0000  48.0000 14.48668702    16
TIANQI-3G_L_00009009-01
1 10024U 22037UV  26075.70052083  .00000000  00000+0  00000-0 0  9995
2 10024  98.3000 144.0000 0000000   0.0000 192.0000 14.48668702    17
TIANQI-3G_L_00009009-02
1 10025U 24668TW  26075.70052083  .00000000  00000+0  00000-0 0  9998
2 10025  98.3000 144.0000 0000000   0.0000 312.0000 14.48668702    12
TIANQI-3G_L_00009009-03
1 10026U 23265GU  26075.70052083  .00000000  00000+0  00000-0 0  9991
2 10026  98.3000 144.0000 0000000   0.0000  72.0000 14.48668702    16
TIANQI-3G_L_00009010-01
1 10027U 23958V   26075.70052083  .00000000  00000+0  00000-0 0  9991
2 10027  98.3000 162.0000 0000000   0.0000 216.0000 14.48668702    17
TIANQI-3G_L_00009010-02
1 10028U 26090ME  26075.70052083  .00000000  00000+0  00000-0 0  9992
2 10028  98.3000 162.0000 0000000   0.0000 336.0000 14.48668702    11
TIANQI-3G_L_00009010-03
1 10029U 24613QO  26075.70052083  .00000000  00000+0  00000-0 0  9992
2 10029  98.3000 162.0000 0000000   0.0000  96.0000 14.48668702    15
TIANQI-3G_L_00009011-01
1 10030U 24079AF  26075.70052083  .00000000  00000+0  00000-0 0  9990
2 10030  98.3000 180.0000 0000000   0.0000 240.0000 14.48668702    18
TIANQI-3G_L_00009011-02
1 10031U 25817LO  26075.70052083  .00000000  00000+0  00000-0 0  9992
2 10031  98.3000 180.0000 0000000   0.0000   0.0000 14.48668702    13
TIANQI-3G_L_00009011-03
1 10032U 23879BZ  26075.70052083  .00000000  00000+0  00000-0 0  9999
2 10032  98.3000 180.0000 0000000   0.0000 120.0000 14.48668702    17
TIANQI-3G_L_00009012-01
1 10033U 26434BY  26075.70052083  .00000000  00000+0  00000-0 0  9990
2 10033  98.3000 198.0000 0000000   0.0000 264.0000 14.48668702    16
TIANQI-3G_L_00009012-02
1 10034U 26976RL  26075.70052083  .00000000  00000+0  00000-0 0  9992
2 10034  98.3000 198.0000 0000000   0.0000  24.0000 14.48668702    11
TIANQI-3G_L_00009012-03
1 10035U 25138PI  26075.70052083  .00000000  00000+0  00000-0 0  9992
2 10035  98.3000 198.0000 0000000   0.0000 144.0000 14.48668702    15
TIANQI-3G_L_00009013-01
1 10036U 23411RH  26075.70052083  .00000000  00000+0  00000-0 0  9995
2 10036  98.3000 216.0000 0000000   0.0000 288.0000 14.48668702    16
TIANQI-3G_L_00009013-02
1 10037U 26770IH  26075.70052083  .00000000  00000+0  00000-0 0  9997
2 10037  98.3000 216.0000 0000000   0.0000  48.0000 14.48668702    11
TIANQI-3G_L_00009013-03
1 10038U 23271TS  26075.70052083  .00000000  00000+0  00000-0 0  9991
2 10038  98.3000 216.0000 0000000   0.0000 168.0000 14.48668702    15
TIANQI-3G_L_00009014-01
1 10039U 25945PW  26075.70052083  .00000000  00000+0  00000-0 0  9992
2 10039  98.3000 234.0000 0000000   0.0000 312.0000 14.48668702    17
TIANQI-3G_L_00009014-02
1 10040U 23133RB  26075.70052083  .00000000  00000+0  00000-0 0  9991
2 10040  98.3000 234.0000 0000000   0.0000  72.0000 14.48668702    12
TIANQI-3G_L_00009014-03
1 10041U 24017IV  26075.70052083  .00000000  00000+0  00000-0 0  9994
2 10041  98.3000 234.0000 0000000   0.0000 192.0000 14.48668702    16
TIANQI-3G_L_00009015-01
1 10042U 24246OF  26075.70052083  .00000000  00000+0  00000-0 0  9999
2 10042  98.3000 252.0000 0000000   0.0000 336.0000 14.48668702    17
TIANQI-3G_L_00009015-02
1 10043U 25399AM  26075.70052083  .00000000  00000+0  00000-0 0  9990
2 10043  98.3000 252.0000 0000000   0.0000  96.0000 14.48668702    11
TIANQI-3G_L_00009015-03
1 10044U 25872LA  26075.70052083  .00000000  00000+0  00000-0 0  9997
2 10044  98.3000 252.0000 0000000   0.0000 216.0000 14.48668702    16
TIANQI-3G_L_00009016-01
1 10045U 22689AG  26075.70052083  .00000000  00000+0  00000-0 0  9991
2 10045  98.3000 270.0000 0000000   0.0000   0.0000 14.48668702    18
TIANQI-3G_L_00009016-02
1 10046U 26601OG  26075.70052083  .00000000  00000+0  00000-0 0  9990
2 10046  98.3000 270.0000 0000000   0.0000 120.0000 14.48668702    12
TIANQI-3G_L_00009016-03
1 10047U 26522P   26075.70052083  .00000000  00000+0  00000-0 0  9993
2 10047  98.3000 270.0000 0000000   0.0000 240.0000 14.48668702    16
TIANQI-3G_L_00009017-01
1 10048U 22197YN  26075.70052083  .00000000  00000+0  00000-0 0  9998
2 10048  98.3000 288.0000 0000000   0.0000  24.0000 14.48668702    16
TIANQI-3G_L_00009017-02
1 10049U 25844BZ  26075.70052083  .00000000  00000+0  00000-0 0  9991
2 10049  98.3000 288.0000 0000000   0.0000 144.0000 14.48668702    10
TIANQI-3G_L_00009017-03
1 10050U 25640IA  26075.70052083  .00000000  00000+0  00000-0 0  9997
2 10050  98.3000 288.0000 0000000   0.0000 264.0000 14.48668702    15
TIANQI-3G_L_00009018-01
1 10051U 25135GL  26075.70052083  .00000000  00000+0  00000-0 0  9997
2 10051  98.3000 306.0000 0000000   0.0000  48.0000 14.48668702    17
TIANQI-3G_L_00009018-02
1 10052U 23608AD  26075.70052083  .00000000  00000+0  00000-0 0  9991
2 10052  98.3000 306.0000 0000000   0.0000 168.0000 14.48668702    11
TIANQI-3G_L_00009018-03
1 10053U 25083ML  26075.70052083  .00000000  00000+0  00000-0 0  9991
2 10053  98.3000 306.0000 0000000   0.0000 288.0000 14.48668702    15
TIANQI-3G_L_00009019-01
1 10054U 26256QS  26075.70052083  .00000000  00000+0  00000-0 0  9995
2 10054  98.3000 324.0000 0000000   0.0000  72.0000 14.48668702    17
TIANQI-3G_L_00009019-02
1 10055U 22395DP  26075.70052083  .00000000  00000+0  00000-0 0  9996
2 10055  98.3000 324.0000 0000000   0.0000 192.0000 14.48668702    11
TIANQI-3G_L_00009019-03
1 10056U 22924TV  26075.70052083  .00000000  00000+0  00000-0 0  9995
2 10056  98.3000 324.0000 0000000   0.0000 312.0000 14.48668702    16
TIANQI-3G_L_00009020-01
1 10057U 22165UQ  26075.70052083  .00000000  00000+0  00000-0 0  9993
2 10057  98.3000 342.0000 0000000   0.0000  96.0000 14.48668702    16
TIANQI-3G_L_00009020-02
1 10058U 25883RU  26075.70052083  .00000000  00000+0  00000-0 0  9994
2 10058  98.3000 342.0000 0000000   0.0000 216.0000 14.48668702    11
TIANQI-3G_L_00009020-03
1 10059U 23392MP  26075.70052083  .00000000  00000+0  00000-0 0  9998
2 10059  98.3000 342.0000 0000000   0.0000 336.0000 14.48668702    15
